#cP2022  3 30  0  0  0.00000000     576 d+D   IGb14 EXT AIUB
## 2203 259200.00000000   300.00000000 59668 0.0000000000000
+   75   G01G02G03G04G05G06G07G08G09G10G11G12G13G14G15G16G17
+        G18G19G20G21G22G23G24G25G26G27G28G29G30G31G32R01R02
+        R03R04R05R07R08R09R12R13R14R15R17R18R19R21R24E01E02
+        E03E04E05E07E08E09E10E11E12E13E14E15E18E19E21E24E25
+        E26E27E30E31E33E34E36  0  0  0  0  0  0  0  0  0  0
++         5  7  6  8  7  6  7  6  6  6  8  7  7  7  7  7  7
++         8  7  7  7  7  7  7  6  6  5  7  7  6  6  5  8  7
++         7  7  7  7  6  6  8  8  8  7  7  7  8  8  7  6  6
++         7  6  6  5  6  6  6  6  6  6  6  6  6  7  6  6  7
++         7  5  6  6  6  6  7  0  0  0  0  0  0  0  0  0  0
%c M  cc GPS ccc cccc cccc cccc cccc ccccc ccccc ccccc ccccc
%c cc cc ccc ccc cccc cccc cccc cccc ccccc ccccc ccccc ccccc
%f  1.2500000  1.025000000  0.00000000000  0.000000000000000
%f  0.0000000  0.000000000  0.00000000000  0.000000000000000
%i    0    0    0    0      0      0      0      0         0
%i    0    0    0    0      0      0      0      0         0
/* Center for Orbit Determination in Europe (CODE)          
/* Ultra-rapid GRE orbits starting year-day 22089 00 hour   
/* Observed/predicted: 24/24 hours (data used up to 089X)   
/* PCV:IGS14      OL/AL:FES2014b NONE     YN ORB:CoN CLK:BRD
*  2022  3 30 17 55  0.00000000
PG01  13869.253610 -21766.365744   5125.849537    396.524837
PG02 -16231.410570   4355.065693 -19948.295061   -652.777521
PG03  16688.320776 -12806.782904 -16249.729122   -186.166970
PG04   7195.329131 -15105.340886 -20599.707115   -179.814587
PG05 -26016.055858   5246.207779   2185.823898    -76.533395
PG06  -9418.515623 -12958.646559 -21102.519282    249.248655
PG07   3246.732328 -24276.047571  10011.494683    318.429705
PG08  14519.542623  -5552.107622  21540.408604    -61.915675
PG09  -3262.244548 -21845.061040 -14793.034702   -346.787417
PG10  13521.446893  12073.622717  19658.635407   -363.131783
PG11 -17100.809622   2459.096329 -20175.680314    -52.617828
PG12 -20181.073476  10238.767201 -14067.366840   -192.816328
PG13 -17385.941381  -4062.371396  19566.788700    285.656348
PG14 -12012.411889 -13259.281691  19648.170708    -98.592214
PG15 -13799.662862   7997.315433  20859.181579    -72.768052
PG16  26761.102398    894.595788  -1704.290491   -486.471059
PG17 -13667.485509 -22737.855761    808.794686    594.019162
PG18  -4359.534904  24353.116467   9513.319002    207.571888
PG19 -16795.745533 -19423.362139  -7433.256702    137.883295
PG20 -25302.120131    906.863336  -7607.134051    516.065224
PG21  16609.477596 -13734.132357  15723.854419    159.969578
PG22  17805.060861  17464.506821  -8985.410350    235.603935
PG23   1047.428625  15043.636244  21852.740918    -11.094605
PG24 -14480.118877  19783.631341   9384.895492    262.675335
PG25  -6827.463199  15425.528655 -20739.682347    305.387101
PG26  22660.434171   6024.823150 -12852.339404    194.880552
PG27  19212.133557   6830.355767  17026.439827    170.025525
PG28 -19346.337889 -10383.140399  15294.968441    374.606417
PG29    438.457638  21213.705337 -15989.604461   -497.434295
PG30  -3447.865652 -20678.048667  16238.324780   -521.393325
PG31  11770.053974  10503.616489 -21439.243671   -171.247530
PG32  16801.802108  20591.791164  -2010.258546    -95.182821
PR01   8856.099248  14694.848167  18876.975729      7.462735
PR02  21914.309985  12996.405519   1841.697708    514.062892
PR03  20573.529244   3135.326867 -14739.396523     54.034814
PR04   7636.868285  -8060.975905 -22931.718297    134.336457
PR05  -9360.661266 -14939.605429 -18408.500220     90.302393
PR07 -20150.224176  -2554.255604  15444.291802     33.271033
PR08  -7526.076370   8316.745463  22969.463598    -64.310180
PR09 -14509.466843  -2875.617184  20814.136316     47.141239
PR12  -2290.416166  13546.697393 -21466.924095     17.666491
PR13  13374.991253   3628.984556 -21435.557591    -20.168656
PR14  22266.835682  -9357.560266  -8176.044037     75.959750
PR15  17489.961141 -16119.565071   9230.614785     97.195097
PR17  10326.622817  -4031.311003  22982.935759    513.652051
PR18   6232.051888 -19884.324809  14682.797343    111.961539
PR19     91.463677 -25504.145498   -299.076026   -183.539692
PR21 -10115.223269   5540.193011 -22751.021723   -289.435210
PR24   8940.587367  14881.274015  18702.050917     86.804803
PE01   2908.479527  16398.328029 -24474.539466   -606.846899
PE02  -3061.829767 -16360.044331  24469.770558    289.638743
PE03 -11424.187725 -24576.051586 -11912.923923   -542.826768
PE04  22698.548404  17968.860630  -6164.459754   -995.830082
PE05   6807.498274 -16858.052136 -23352.105455   -195.478494
PE07 -20815.329381   -546.756990  21051.062255   -653.599512
PE08 -22839.187404 -17669.425877   6536.691720   -503.954051
PE09  20617.550174    356.921901 -21224.220240   -467.217027
PE10  16202.508891   1471.350413  24721.751712   -503.641305
PE11  17620.471355 -10232.597728  21454.407980   4093.527341
PE12  12414.167268  12465.994865  23808.847785   4687.542072
PE13 -17540.478397   9589.418153 -21831.006193    427.676226
PE14 -20723.647907 -22036.914603  -6943.122779  -1796.608513
PE15 -12311.501901 -12535.628903 -23812.689661    754.652985
PE18  11381.485878  22745.381229  -2543.974830  -1622.784082
PE19   9357.238384  24371.039502  13966.561314  -2187.654568
PE21 -17305.383200  16282.022174 -17653.644329   -725.569904
PE24  29016.242509  -5855.103924   -935.445076   -533.925883
PE25  17567.090207 -16209.767603  17464.417309   -568.640748
PE26 -12065.317630  26343.064434  -6065.758501   -972.904951
PE27 -28800.187734   6798.239470   -295.476083   -264.993914
PE30 -22482.239745  -7389.555271  17753.906161   -390.763083
PE31  23257.947425   6598.961717 -17082.761456   -494.310592
PE33   -156.656978  27179.503931  11746.123325   -458.075345
PE34    -40.529263 -27092.153061 -11927.926434   -509.491965
PE36  12436.131752 -25910.051869   7054.357876   -352.670772
EOF
